[{"OBJECT_NAME":"STARLINK-34822","OBJECT_ID":"2025-167J","EPOCH":"2026-03-09T03:50:45.727008","MEAN_MOTION":15.30285074,"ECCENTRICITY":0.00015366,"INCLINATION":53.1617,"RA_OF_ASC_NODE":29.4811,"ARG_OF_PERICENTER":83.8991,"MEAN_ANOMALY":276.2184,"EPHEMERIS_TYPE":0,"CLASSIFICATION_TYPE":"U","NORAD_CAT_ID":65086,"ELEMENT_SET_NO":999,"REV_AT_EPOCH":3339,"BSTAR":0.0023197424,"MEAN_MOTION_DOT":0.00069169,"MEAN_MOTION_DDOT":0},{"OBJECT_NAME":"FENGYUN 1C DEB","OBJECT_ID":"1999-025FBF","EPOCH":"2026-03-06T07:33:49.292640","MEAN_MOTION":15.04395515,"ECCENTRICITY":0.01189701,"INCLINATION":98.9505,"RA_OF_ASC_NODE":84.7158,"ARG_OF_PERICENTER":75.0888,"MEAN_ANOMALY":286.3472,"EPHEMERIS_TYPE":0,"CLASSIFICATION_TYPE":"U","NORAD_CAT_ID":47029,"ELEMENT_SET_NO":999,"REV_AT_EPOCH":4330,"BSTAR":0.0027080259,"MEAN_MOTION_DOT":0.00044409,"MEAN_MOTION_DDOT":0}]
